      2.10          N: GNSS NAV DATA                        RINEX VERSION / TYPE
fic2rin                                 04/07/2022 00:17:27 PGM / RUN BY / DATE
                                                            END OF HEADER
 4 22  4  6 18  0  0.0-1.780367456377e-04 2.955857780762e-12 0.000000000000e+00
    2.700000000000e+01-1.431250000000e+01 4.640550440410e-09 1.381063090433e+00
   -7.096678018570e-07 1.766838366166e-03 6.601214408875e-06 5.153626955032e+03
    3.240000000000e+05-5.960464477539e-08-6.719913012150e-01 2.607703208923e-08
    9.612374347803e-01 2.528437500000e+02-2.986865958453e+00-7.957117160155e-09
    4.143029716675e-11 1.000000000000e+00 2.204000000000e+03 0.000000000000e+00
    2.400000000000e+00 0.000000000000e+00-4.190951585770e-09 2.830000000000e+02
    3.168000000000e+05 4.000000000000e+00
22 22  4  6 18  0  0.0 2.391971647739e-04 5.911715561524e-12 0.000000000000e+00
    6.000000000000e+00-1.850000000000e+01 4.628407077447e-09 1.703516055607e+00
   -1.022592186928e-06 1.320465398021e-02 6.683170795441e-06 5.153669284821e+03
    3.240000000000e+05-1.378357410431e-07-6.236494629434e-01-3.203749656677e-07
    9.613979944283e-01 2.501562500000e+02-1.861125527371e+00-8.013190924423e-09
    6.107397254753e-11 1.000000000000e+00 2.204000000000e+03 0.000000000000e+00
    2.400000000000e+00 0.000000000000e+00-9.778887033463e-09 6.000000000000e+00
    3.168000000000e+05 4.000000000000e+00
12 22  4  6 18  0  0.0-1.963181421161e-04-5.798028723802e-12 0.000000000000e+00
    8.600000000000e+01 8.603125000000e+01 4.388754237801e-09-1.649245481420e+00
    4.690140485764e-06 8.733472554013e-03 6.200745701790e-06 5.153577047348e+03
    3.240000000000e+05 1.490116119385e-07 1.459119839227e+00 1.136213541031e-07
    9.695496358283e-01 2.660937500000e+02 1.270238233310e+00-7.929973172356e-09
    1.250052069686e-10 1.000000000000e+00 2.204000000000e+03 0.000000000000e+00
    2.400000000000e+00 0.000000000000e+00-1.257285475731e-08 8.600000000000e+01
    3.168000000000e+05 4.000000000000e+00
10 22  4  6 18  0  0.0-3.705429844558e-04-1.239186531166e-11 0.000000000000e+00
    9.700000000000e+01-2.543750000000e+01 3.974094108400e-09-2.390308960066e+00
   -1.380220055580e-06 7.549304864369e-03 8.920207619667e-06 5.153681076050e+03
    3.240000000000e+05-7.078051567078e-08-1.756517081690e+00-5.215406417847e-08
    9.726965028165e-01 2.134687500000e+02-2.495252686090e+00-7.589244693933e-09
    4.310893851747e-10 1.000000000000e+00 2.204000000000e+03 0.000000000000e+00
    2.400000000000e+00 0.000000000000e+00 2.328306436539e-09 9.700000000000e+01
    3.168000000000e+05 4.000000000000e+00
31 22  4  6 18  0  0.0-1.722630113363e-04-1.705302565824e-12 0.000000000000e+00
    5.400000000000e+01 2.800000000000e+01 4.608406244332e-09-1.478010639361e+00
    1.184642314911e-06 1.042935403530e-02 8.773058652878e-06 5.153714309692e+03
    3.240000000000e+05 1.173466444016e-07 3.644321177519e-01-1.154839992523e-07
    9.555060391990e-01 2.014687500000e+02 3.850590388431e-01-7.883899824644e-09
   -7.107438910502e-11 1.000000000000e+00 2.204000000000e+03 0.000000000000e+00
    2.400000000000e+00 0.000000000000e+00-1.350417733192e-08 5.400000000000e+01
    3.168000000000e+05 4.000000000000e+00
32 22  4  6 18  0  0.0-9.990017861128e-05-7.844391802792e-12 0.000000000000e+00
    5.600000000000e+01-1.584375000000e+01 4.654836749778e-09 2.502439221415e+00
   -7.078051567078e-07 5.853544338606e-03 6.562098860741e-06 5.153578512192e+03
    3.240000000000e+05-5.587935447693e-09-7.139370334288e-01-1.061707735062e-07
    9.580576623758e-01 2.507187500000e+02-2.304792149764e+00-7.960331579762e-09
    1.160762636137e-10 1.000000000000e+00 2.204000000000e+03 0.000000000000e+00
    2.400000000000e+00 0.000000000000e+00 4.656612873077e-10 5.600000000000e+01
    3.168000000000e+05 4.000000000000e+00
30 22  4  6 18  0  0.0-5.225143395364e-04-1.818989403546e-12 0.000000000000e+00
    2.800000000000e+01 1.825000000000e+01 5.058424989419e-09-9.809349332945e-01
    9.462237358093e-07 5.665725097060e-03 8.599832653999e-06 5.153785045624e+03
    3.240000000000e+05 9.872019290924e-08 3.585208520040e-01-5.960464477539e-08
    9.364495621288e-01 1.963437500000e+02-2.725317356750e+00-8.166411592393e-09
   -1.710785546799e-10 1.000000000000e+00 2.204000000000e+03 0.000000000000e+00
    2.400000000000e+00 0.000000000000e+00 3.725290298462e-09 2.800000000000e+01
    3.168000000000e+05 4.000000000000e+00
25 22  4  6 18  0  0.0 3.084512427449e-04 5.002220859751e-12 0.000000000000e+00
    3.200000000000e+01 9.056250000000e+01 4.648407910562e-09-1.937595978501e+00
    4.677101969719e-06 1.056488603354e-02 6.446614861488e-06 5.153692613602e+03
    3.240000000000e+05 1.713633537292e-07 1.381740673125e+00-2.980232238770e-08
    9.570485692801e-01 2.527187500000e+02 9.976812900932e-01-7.977475151004e-09
    1.682212928064e-10 1.000000000000e+00 2.204000000000e+03 0.000000000000e+00
    2.400000000000e+00 0.000000000000e+00 5.587935447693e-09 3.200000000000e+01
    3.168000000000e+05 4.000000000000e+00
16 22  4  6 18  0  0.0-4.889145493507e-04-3.979039320257e-12 0.000000000000e+00
    7.400000000000e+01 1.037187500000e+02 4.294107438240e-09 2.776052215935e+00
    5.165114998817e-06 1.278274622746e-02 6.565824151039e-06 5.153635911942e+03
    3.240000000000e+05-6.891787052155e-08 1.477714186327e+00-1.769512891769e-07
    9.694602398303e-01 2.585000000000e+02 7.239955139363e-01-7.754251567131e-09
    5.750239520557e-11 1.000000000000e+00 2.204000000000e+03 0.000000000000e+00
    2.400000000000e+00 0.000000000000e+00-1.024454832077e-08 7.400000000000e+01
    3.168000000000e+05 4.000000000000e+00
15 22  4  6 18  0  0.0-7.099332287908e-05 2.955857780762e-12 0.000000000000e+00
    8.500000000000e+01-9.781250000000e+00 5.475585222960e-09 8.974135812892e-01
   -4.768371582031e-07 1.397273596376e-02 6.416812539101e-06 5.153759208679e+03
    3.240000000000e+05-1.899898052216e-07-8.327381953684e-01 2.980232238770e-08
    9.300285250211e-01 2.431562500000e+02 1.083428076968e+00-8.667503893471e-09
    1.750072897561e-11 1.000000000000e+00 2.204000000000e+03 0.000000000000e+00
    2.400000000000e+00 0.000000000000e+00-1.071020960808e-08 8.500000000000e+01
    3.168000000000e+05 4.000000000000e+00
 9 22  4  6 18  0  0.0-3.453958779573e-04 2.387423592154e-12 0.000000000000e+00
    6.100000000000e+01-1.440625000000e+01 4.748769233871e-09 2.308210603105e+00
   -6.835907697678e-07 2.113311435096e-03 6.472691893578e-06 5.153583639145e+03
    3.240000000000e+05 1.303851604462e-08-7.253578315281e-01 6.891787052155e-08
    9.542184416111e-01 2.510000000000e+02 1.878770525488e+00-7.990689987169e-09
    1.135761594744e-10 1.000000000000e+00 2.204000000000e+03 0.000000000000e+00
    2.400000000000e+00 0.000000000000e+00 1.396983861923e-09 6.100000000000e+01
    3.168000000000e+05 4.000000000000e+00
26 22  4  6 18  0  0.0 1.966264098883e-04 2.842170943040e-12 0.000000000000e+00
    6.600000000000e+01 9.903125000000e+01 5.034852578962e-09-2.596498974444e+00
    4.928559064865e-06 6.922460976057e-03 7.238239049911e-06 5.153732875824e+03
    3.240000000000e+05-5.774199962616e-08 1.333774273761e+00-1.806765794754e-07
    9.379154674868e-01 2.302812500000e+02 3.892218249027e-01-8.217127990649e-09
    5.214502919263e-11 1.000000000000e+00 2.204000000000e+03 0.000000000000e+00
    2.400000000000e+00 0.000000000000e+00 6.984919309616e-09 6.600000000000e+01
    3.168000000000e+05 4.000000000000e+00
18 22  4  6 18  0  0.0 2.020136453211e-04-9.208633855451e-12 0.000000000000e+00
    1.380000000000e+02-7.546875000000e+01 4.109456889660e-09-7.788343542627e-02
   -4.183501005173e-06 2.175962319598e-03 7.478520274162e-06 5.153612644196e+03
    3.240000000000e+05 2.793967723846e-08-2.781038090908e+00 1.862645149231e-09
    9.714159477163e-01 2.408750000000e+02 3.068446315140e+00-7.911400970177e-09
   -1.964367538078e-10 1.000000000000e+00 2.204000000000e+03 0.000000000000e+00
    2.400000000000e+00 0.000000000000e+00-8.381903171539e-09 1.380000000000e+02
    3.168000000000e+05 4.000000000000e+00
13 22  4  6 18  0  0.0 2.895523793995e-04 6.480149750132e-12 0.000000000000e+00
    8.600000000000e+01-1.375000000000e+01 4.531260173746e-09 1.380898861786e+00
   -7.729977369308e-07 5.833904491737e-03 6.534159183502e-06 5.153669288635e+03
    3.240000000000e+05-1.061707735062e-07-5.717034670470e-01 5.401670932770e-08
    9.687245354024e-01 2.562500000000e+02 9.336993726924e-01-8.046406593704e-09
    1.071473202588e-11 1.000000000000e+00 2.204000000000e+03 0.000000000000e+00
    2.400000000000e+00 0.000000000000e+00-1.117587089539e-08 8.600000000000e+01
    3.168000000000e+05 4.000000000000e+00
27 22  4  6 18  0  0.0 1.763137988746e-04 1.000444171950e-11 0.000000000000e+00
    8.900000000000e+01 9.093750000000e+00 4.511616498365e-09 1.865421108357e+00
    3.986060619354e-07 1.047419093084e-02 3.110617399216e-06 5.153654409409e+03
    3.240000000000e+05-2.942979335785e-07 2.434437503568e+00 1.862645149231e-09
    9.728064118518e-01 3.295000000000e+02 6.632273027879e-01-8.258558287816e-09
   -1.085759511956e-10 1.000000000000e+00 2.204000000000e+03 0.000000000000e+00
    3.400000000000e+00 0.000000000000e+00 1.396983861923e-09 8.900000000000e+01
    3.168000000000e+05 4.000000000000e+00
17 22  4  6 18  0  0.0 5.969433113933e-04 4.888534022029e-12 0.000000000000e+00
    9.400000000000e+01 2.875000000000e+00 4.229819046084e-09 1.790134386168e+00
   -1.899898052216e-07 1.347935281228e-02 2.823770046234e-06 5.153784326553e+03
    3.240000000000e+05 1.452863216400e-07 2.497260561635e+00-2.123415470123e-07
    9.793007850428e-01 3.306250000000e+02-1.491815095698e+00-7.979260939675e-09
   -1.685784505406e-10 1.000000000000e+00 2.204000000000e+03 0.000000000000e+00
    2.400000000000e+00 0.000000000000e+00-1.117587089539e-08 9.400000000000e+01
    3.168000000000e+05 4.000000000000e+00
